IRIDIUM 39              
1 25042U 97069D   26025.29743748  .00001286  00000+0  32958-3 0  9999
2 25042  86.3926 115.9532 0015532 285.7791  74.1701 14.49588124481133
IRIDIUM 38              
1 25043U 97069E   26025.38868000  .00000934  00000+0  30036-3 0  9993
2 25043  86.4002 139.7585 0004041  92.6425 267.5235 14.38370967477894
IRIDIUM 42              
1 25077U 97077A   26025.39039235  .00000833  00000+0  27685-3 0  9994
2 25077  86.4010 146.2015 0002869  99.1300 261.0222 14.36581471473096
IRIDIUM 44              
1 25078U 97077B   26025.36973948  .00000687  00000+0  20983-3 0  9991
2 25078  86.3989 127.5477 0003142  59.5251 300.6258 14.40477707475682
IRIDIUM 45              
1 25104U 97082A   26025.28616641  .00034803  00000+0  91616-3 0  9990
2 25104  86.3543 299.1738 0090571 211.5233 148.0574 15.34217625485946
IRIDIUM 24              
1 25105U 97082B   26025.40055177  .00001034  00000+0  30661-3 0  9999
2 25105  86.3939 346.0268 0013439  67.4818 292.7803 14.42385715475249
IRIDIUM 51              
1 25262U 98018A   26024.74324281  .00234906  00000+0  15069-2 0  9994
2 25262  86.3693 303.9872 0045470 100.2835 260.3569 15.74161554481389
IRIDIUM 57              
1 25273U 98019B   26025.46062196  .00000560  00000+0  18569-3 0  9997
2 25273  86.3919  52.0409 0002354  89.4631 270.6836 14.36089560456685
